HAWK-5A                 
1 52757U 22057AB  26185.90687787  .00029530  00000+0  49041-3 0  9995
2 52757  97.6628 345.9084 0004235  16.9021 343.2371 15.52050583229091
HAWK-6B                 
1 55324U 23011A   26185.62548992  .00006526  00000+0  27895-3 0  9995
2 55324  40.4975 250.3511 0002517 181.3934 178.6868 15.23088355190500
HAWK-6C                 
1 55326U 23011C   26186.21499195  .00007010  00000+0  29898-3 0  9997
2 55326  40.4958 243.7478 0002953 167.8665 192.2216 15.23094987190603
HAWK-6A                 
1 55327U 23011D   26186.21502640  .00007044  00000+0  30036-3 0  9991
2 55327  40.4969 245.3741 0002504 166.8050 193.2826 15.23096203190607
HAWK-7A                 
1 56191U 23054P   26185.92934449  .00008632  00000+0  32291-3 0  9990
2 56191  97.2675  72.8153 0002630  13.4749 346.6561 15.27553055179731
HAWK-7B                 
1 56193U 23054R   26185.73275578  .00009345  00000+0  34935-3 0  9991
2 56193  97.2703  70.8940 0002453  35.8376 324.3028 15.27552891179709
HAWK-7C                 
1 56200U 23054Y   26186.12567978  .00009370  00000+0  35019-3 0  9994
2 56200  97.2677  72.0400 0002120  23.2789 336.8547 15.27558745179767
